NORAD_CAT_ID,OBJECT_NAME,OBJECT_TYPE,EPOCH,MEAN_MOTION,ECCENTRICITY,INCLINATION,RA_OF_ASC_NODE,ARG_OF_PERICENTER,MEAN_ANOMALY,BSTAR,MEAN_MOTION_DOT,MEAN_MOTION_DDOT,TLE_LINE0,TLE_LINE1,TLE_LINE2,SEMIMAJOR_AXIS,PERIOD,APOGEE,PERIGEE,DECAYED
55269.0,STARLINK-5277,PAYLOAD,2023-12-11 03:25:31,14.9834427,0.000289,69.9994,310.9107,250.007,110.0778,0.00012418,1.39e-05,0.0,0 STARLINK-5277,1 55269U 23010A   23345.14272644  .00001390  00000-0  12418-3 0  9992,2 55269  69.9994 310.9107 0002890 250.0070 110.0778 14.98344270 49716,6950.149,96.106,574.022,570.005,0.0
55269.0,STARLINK-5277,PAYLOAD,2023-12-11 08:13:55,14.98343189,0.0002927,69.999,310.4043,259.3874,100.6956,9.4166e-05,1.031e-05,0.0,0 STARLINK-5277,1 55269U 23010A   23345.34300679  .00001031  00000-0  94166-4 0  9997,2 55269  69.9990 310.4043 0002927 259.3874 100.6956 14.98343189 50332,6950.152,96.106,574.051,569.983,0.0
55269.0,STARLINK-5277,PAYLOAD,2023-12-11 22:39:08,14.9833695,0.0002348,70.0003,308.8888,255.3811,104.7088,3.2279e-05,2.92e-06,0.0,0 STARLINK-5277,1 55269U 23010A   23345.94384582  .00000292  00000-0  32279-4 0  9993,2 55269  70.0003 308.8888 0002348 255.3811 104.7088 14.98336950 50421,6950.171,96.107,573.668,570.404,0.0
55269.0,STARLINK-5277,PAYLOAD,2023-12-12 03:27:32,14.98336833,0.0002685,69.9995,308.385,254.4462,105.6401,-2.1165e-05,-3.46e-06,0.0,0 STARLINK-5277,1 55269U 23010A   23346.14412721 -.00000346  00000-0 -21165-4 0  9997,2 55269  69.9995 308.3850 0002685 254.4462 105.6401 14.98336833 49863,6950.172,96.107,573.903,570.171,0.0
55269.0,STARLINK-5277,PAYLOAD,2023-12-12 06:39:48,14.98334996,0.0002554,69.9999,308.0481,256.2906,103.7969,-2.2602e-05,-3.63e-06,0.0,0 STARLINK-5277,1 55269U 23010A   23346.27764810 -.00000363  00000-0 -22602-4 0  9996,2 55269  69.9999 308.0481 0002554 256.2906 103.7969 14.98334996 50477,6950.177,96.107,573.818,570.267,0.0
55269.0,STARLINK-5277,PAYLOAD,2023-12-13 03:29:33,14.98335488,0.0002561,69.9999,305.86,255.5941,104.4934,-1.637e-05,-2.88e-06,0.0,0 STARLINK-5277,1 55269U 23010A   23347.14552458 -.00000288  00000-0 -16370-4 0  9997,2 55269  69.9999 305.8600 0002561 255.5941 104.4934 14.98335488 50011,6950.176,96.107,573.821,570.261,0.0
55269.0,STARLINK-5277,PAYLOAD,2023-12-13 06:41:49,14.98335083,0.0002556,69.9999,305.5232,257.429,102.6583,-2.1459e-05,-3.49e-06,0.0,0 STARLINK-5277,1 55269U 23010A   23347.27904430 -.00000349  00000-0 -21459-4 0  9994,2 55269  69.9999 305.5232 0002556 257.4290 102.6583 14.98335083 50629,6950.177,96.107,573.819,570.266,0.0
55269.0,STARLINK-5277,PAYLOAD,2023-12-13 22:43:10,14.98330668,0.0002557,69.9998,303.8401,258.0014,102.0859,4.2017e-05,4.08e-06,0.0,0 STARLINK-5277,1 55269U 23010A   23347.94664421  .00000408  00000-0  42017-4 0  9998,2 55269  69.9998 303.8401 0002557 258.0014 102.0859 14.98330668 50724,6950.191,96.107,573.833,570.279,0.0
55269.0,STARLINK-5277,PAYLOAD,2023-12-14 05:07:42,14.98330744,0.0002557,69.9999,303.1671,257.4097,102.6776,3.9708e-05,3.81e-06,0.0,0 STARLINK-5277,1 55269U 23010A   23348.21368436  .00000381  00000-0  39708-4 0  9999,2 55269  69.9999 303.1671 0002557 257.4097 102.6776 14.98330744 50179,6950.191,96.107,573.833,570.278,0.0
55269.0,STARLINK-5277,PAYLOAD,2023-12-14 06:43:50,14.98331109,0.0002559,69.9999,302.9987,257.7041,102.3831,4.2519e-05,4.14e-06,0.0,0 STARLINK-5277,1 55269U 23010A   23348.28044405  .00000414  00000-0  42519-4 0  9994,2 55269  69.9999 302.9987 0002559 257.7041 102.3831 14.98331109 50771,6950.189,96.107,573.833,570.276,0.0
55269.0,STARLINK-5277,PAYLOAD,2023-12-14 22:45:10,14.98333896,0.0002579,69.9998,301.3155,257.9073,102.1798,5.651e-05,5.81e-06,0.0,0 STARLINK-5277,1 55269U 23010A   23348.94804096  .00000581  00000-0  56510-4 0  9998,2 55269  69.9998 301.3155 0002579 257.9073 102.1798 14.98333896 50875,6950.181,96.107,573.838,570.253,0.0
55269.0,STARLINK-5277,PAYLOAD,2023-12-15 05:09:42,14.98333634,0.0002581,69.9998,300.6423,257.3902,102.6968,5.031e-05,5.07e-06,0.0,0 STARLINK-5277,1 55269U 23010A   23349.21508082  .00000507  00000-0  50310-4 0  9995,2 55269  69.9998 300.6423 0002581 257.3902 102.6968 14.98333634 50327,6950.182,96.107,573.84,570.253,0.0
55269.0,STARLINK-5277,PAYLOAD,2023-12-15 06:45:51,14.98333744,0.0002592,69.9998,300.4738,258.5387,101.5481,5.023e-05,5.06e-06,0.0,0 STARLINK-5277,1 55269U 23010A   23349.28184073  .00000506  00000-0  50230-4 0  9992,2 55269  69.9998 300.4738 0002592 258.5387 101.5481 14.98333744 50922,6950.181,96.107,573.848,570.245,0.0
55269.0,STARLINK-5277,PAYLOAD,2023-12-15 22:47:12,14.98327134,0.000245,70.0004,298.7913,250.8888,109.2006,1.4641e-05,8.2e-07,0.0,0 STARLINK-5277,1 55269U 23010A   23349.94944606  .00000082  00000-0  14641-4 0  9996,2 55269  70.0004 298.7913 0002450 250.8888 109.2006 14.98327134 51027,6950.202,96.107,573.77,570.364,0.0
55269.0,STARLINK-5277,PAYLOAD,2023-12-16 03:35:36,14.98326531,0.0002452,70.0004,298.2864,250.6429,109.4465,6.1015e-06,-2e-07,0.0,0 STARLINK-5277,1 55269U 23010A   23350.14972701 -.00000020  00000-0  61015-5 0  9998,2 55269  70.0004 298.2864 0002452 250.6429 109.4465 14.98326531 50466,6950.204,96.107,573.773,570.364,0.0
55269.0,STARLINK-5277,PAYLOAD,2023-12-16 06:47:52,14.98326596,0.0002451,70.0003,297.9494,252.4857,107.6035,6.6462e-06,-1.4e-07,0.0,0 STARLINK-5277,1 55269U 23010A   23350.28324750 -.00000014  00000-0  66462-5 0  9992,2 55269  70.0003 297.9494 0002451 252.4857 107.6035 14.98326596 51076,6950.203,96.107,573.772,570.365,0.0
55269.0,STARLINK-5277,PAYLOAD,2023-12-16 21:13:04,14.98331284,0.000239,70.0003,296.4339,256.1473,103.942,4.6506e-05,4.62e-06,0.0,0 STARLINK-5277,1 55269U 23010A   23350.88408366  .00000462  00000-0  46506-4 0  9996,2 55269  70.0003 296.4339 0002390 256.1473 103.9420 14.98331284 51162,6950.189,96.107,573.715,570.393,0.0
55269.0,STARLINK-5277,PAYLOAD,2023-12-17 03:37:37,14.98330075,0.0002432,70.0002,295.7606,256.579,103.5098,2.6058e-05,2.18e-06,0.0,0 STARLINK-5277,1 55269U 23010A   23351.15112495  .00000218  00000-0  26058-4 0  9991,2 55269  70.0002 295.7606 0002432 256.5790 103.5098 14.98330075 50616,6950.193,96.107,573.748,570.367,0.0
55269.0,STARLINK-5277,PAYLOAD,2023-12-17 06:49:53,14.98329945,0.0002448,70.0001,295.4236,259.7022,100.3861,2.3761e-05,1.91e-06,0.0,0 STARLINK-5277,1 55269U 23010A   23351.28464549  .00000191  00000-0  23761-4 0  9993,2 55269  70.0001 295.4236 0002448 259.7022 100.3861 14.98329945 51226,6950.193,96.107,573.759,570.357,0.0
55269.0,STARLINK-5277,PAYLOAD,2023-12-17 21:15:05,14.983355,0.0002682,69.9995,293.9078,262.4083,97.6771,0.00012833,1.439e-05,0.0,0 STARLINK-5277,1 55269U 23010A   23351.88547901  .00001439  00000-0  12833-3 0  9996,2 55269  69.9995 293.9078 0002682 262.4083  97.6771 14.98335500 51312,6950.176,96.107,573.905,570.177,0.0
55269.0,STARLINK-5277,PAYLOAD,2023-12-18 03:39:37,14.98340515,0.0002572,69.9997,293.2342,263.4896,96.597,0.00018997,2.175e-05,0.0,0 STARLINK-5277,1 55269U 23010A   23352.15251385  .00002175  00000-0  18997-3 0  9990,2 55269  69.9997 293.2342 0002572 263.4896  96.5970 14.98340515 50761,6950.16,96.106,573.813,570.238,0.0
55269.0,STARLINK-5277,PAYLOAD,2023-12-18 05:15:45,14.98342523,0.0002545,69.9998,293.0662,262.8359,97.2511,0.00021187,2.437e-05,0.0,0 STARLINK-5277,1 55269U 23010A   23352.21927166  .00002437  00000-0  21187-3 0  9990,2 55269  69.9998 293.0662 0002545 262.8359  97.2511 14.98342523 51369,6950.154,96.106,573.788,570.25,0.0
55269.0,STARLINK-5277,PAYLOAD,2023-12-18 21:17:06,14.98329133,0.0002366,70.003,291.387,204.4377,155.667,8.014e-05,8.63e-06,0.0,0 STARLINK-5277,1 55269U 23010A   23352.88688209  .00000863  00000-0  80140-4 0  9991,2 55269  70.0030 291.3870 0002366 204.4377 155.6670 14.98329133 51462,6950.196,96.107,573.705,570.416,0.0
55269.0,STARLINK-5277,PAYLOAD,2023-12-19 03:41:39,14.98320552,0.0002445,69.9999,290.7098,255.7512,104.3376,-5.791e-05,-7.84e-06,0.0,0 STARLINK-5277,1 55269U 23010A   23353.15393253 -.00000784  00000-0 -57910-4 0  9997,2 55269  69.9999 290.7098 0002445 255.7512 104.3376 14.98320552 50915,6950.222,96.108,573.786,570.388,0.0
55269.0,STARLINK-5277,PAYLOAD,2023-12-19 10:06:11,14.98331524,0.0002853,69.9991,290.0343,269.0701,91.0131,3.227e-05,2.92e-06,0.0,0 STARLINK-5277,1 55269U 23010A   23353.42096429  .00000292  00000-0  32270-4 0  9996,2 55269  69.9991 290.0343 0002853 269.0701  91.0131 14.98331524 50950,6950.188,96.107,574.036,570.07,0.0
55269.0,STARLINK-5277,PAYLOAD,2023-12-19 13:18:28,14.98324357,0.0002659,69.9995,289.698,265.6967,94.3888,-9.2181e-05,-1.192e-05,0.0,0 STARLINK-5277,1 55269U 23010A   23353.55449145 -.00001192  00000-0 -92181-4 0  9996,2 55269  69.9995 289.6980 0002659 265.6967  94.3888 14.98324357 51564,6950.21,96.107,573.923,570.227,0.0
55269.0,STARLINK-5277,PAYLOAD,2023-12-20 05:19:47,14.98339084,0.0002786,70.0001,288.0149,265.8634,94.2207,0.00013569,1.527e-05,0.0,0 STARLINK-5277,1 55269U 23010A   23354.22207935  .00001527  00000-0  13569-3 0  9992,2 55269  70.0001 288.0149 0002786 265.8634  94.2207 14.98339084 51667,6950.165,96.106,573.966,570.093,0.0
55269.0,STARLINK-5277,PAYLOAD,2023-12-20 21:21:08,14.98340881,0.0003189,70.0,286.3314,276.0685,84.0111,1.099e-05,3.8e-07,0.0,0 STARLINK-5277,1 55269U 23010A   23354.88967996  .00000038  00000-0  10990-4 0  9996,2 55269  70.0000 286.3314 0003189 276.0685  84.0111 14.98340881 51768,6950.159,96.106,574.241,569.808,0.0
55269.0,STARLINK-5277,PAYLOAD,2023-12-21 05:21:48,14.98347817,0.0002779,70.0003,285.4903,262.3186,97.7658,0.00062707,7.4e-05,0.0,0 STARLINK-5277,1 55269U 23010A   23355.22347819  .00007400  00000-0  62707-3 0  9993,2 55269  70.0003 285.4903 0002779 262.3186  97.7658 14.98347817 51227,6950.138,96.106,573.934,570.071,0.0
55269.0,STARLINK-5277,PAYLOAD,2023-12-21 22:59:17,14.98329833,0.0002339,70.0012,283.6412,252.6001,107.4903,6.5227e-05,6.85e-06,0.0,0 STARLINK-5277,1 55269U 23010A   23355.95784357  .00000685  00000-0  65227-4 0  9994,2 55269  70.0012 283.6412 0002339 252.6001 107.4903 14.98329833 51929,6950.193,96.107,573.684,570.433,0.0
